SHIJIAN-16 (SJ-16)      
1 39358U 13057A   25331.31344455  .00002047  00000+0  20465-3 0  9999
2 39358  74.9735  18.8417 0017081 356.3685   3.7376 14.91921960656237
SL-4 R/B                
1 39679U 14021B   25330.67962012  .00016099  00000+0  38722-3 0  9997
2 39679  51.6069 118.6101 0103094  88.4676 272.8113 15.36082508640425
ALOS-2                  
1 39766U 14029A   25331.25511024  .00002659  00000+0  36275-3 0  9998
2 39766  97.9230  66.3213 0001384  99.1239 261.0129 14.79483644621722
YAOGAN-29               
1 41038U 15069A   25331.29970087  .00000546  00000+0  74081-4 0  9991
2 41038  98.0235 354.4209 0001225  21.7210 338.4055 14.82856466540709
ASTRO-H (HITOMI)        
1 41337U 16012A   25331.28081617  .00003598  00000+0  21493-3 0  9991
2 41337  31.0004 297.0209 0009573  21.4371 338.6666 15.09205855536742
HXMT (HUIYAN)           
1 42758U 17034A   25331.17715174  .00007630  00000+0  39585-3 0  9996
2 42758  43.0132 225.9774 0033690 305.4034  54.3668 15.16046417466976
CZ-2C R/B               
1 43521U 18054D   25331.24129383  .00092507  00000+0  71142-3 0  9999
2 43521  35.1352 285.7063 0020097 343.9630  16.0464 15.70473249412610
SAOCOM 1A               
1 43641U 18076A   25331.27950178  .00000568  00000+0  77927-4 0  9997
2 43641  97.8858 155.9264 0001582  89.3098 270.8297 14.82151280386194
H-2A R/B                
1 43682U 18084L   25331.00239285  .00020311  00000+0  56316-3 0  9997
2 43682  98.8789 161.8301 0028540  20.1751 340.0609 15.36584596389980
SAOCOM 1B               
1 46265U 20059A   25331.24324007  .00000596  00000+0  81379-4 0  9996
2 46265  97.8845 154.9921 0001340  90.3122 269.8245 14.82160109283575
CSS (TIANHE)            
1 48274U 21035A   25331.27319927  .00020570  00000+0  26644-3 0  9998
2 48274  41.4669 110.5393 0010765 279.2422  80.7198 15.58329246261610
COSMOS 2550             
1 48865U 21056A   25330.81540081 -.00000141  00000+0  15339-5 0  9997
2 48865  67.1432 352.1024 0008298 270.4119  89.6085 15.33840302247686
