CCSDS_OMM_VERS = 2.0
CREATION_DATE  = 
ORIGINATOR     = 

OBJECT_NAME    = SHIJIAN-16 (SJ-16)
OBJECT_ID      = 2013-057A
CENTER_NAME    = EARTH
REF_FRAME      = TEME
TIME_SYSTEM    = UTC
MEAN_ELEMENT_THEORY = SGP/SGP4

EPOCH          = 2025-11-27T07:31:21.609120
MEAN_MOTION    = 14.91921960
ECCENTRICITY   = .00170816
INCLINATION    = 74.9735
RA_OF_ASC_NODE = 18.8417
ARG_OF_PERICENTER = 356.3685
MEAN_ANOMALY   = 3.7376

EPHEMERIS_TYPE = 0
CLASSIFICATION_TYPE = U
NORAD_CAT_ID   = 39358
ELEMENT_SET_NO = 999
REV_AT_EPOCH   = 65623
BSTAR          = .20464702E-3
MEAN_MOTION_DOT = .2047E-4
MEAN_MOTION_DDOT = 0

CCSDS_OMM_VERS = 2.0
CREATION_DATE  = 
ORIGINATOR     = 

OBJECT_NAME    = SL-4 R/B
OBJECT_ID      = 2014-021B
CENTER_NAME    = EARTH
REF_FRAME      = TEME
TIME_SYSTEM    = UTC
MEAN_ELEMENT_THEORY = SGP/SGP4

EPOCH          = 2025-11-26T16:18:39.178368
MEAN_MOTION    = 15.36082508
ECCENTRICITY   = .01030948
INCLINATION    = 51.6069
RA_OF_ASC_NODE = 118.6101
ARG_OF_PERICENTER = 88.4676
MEAN_ANOMALY   = 272.8113

EPHEMERIS_TYPE = 0
CLASSIFICATION_TYPE = U
NORAD_CAT_ID   = 39679
ELEMENT_SET_NO = 999
REV_AT_EPOCH   = 64042
BSTAR          = .38722102E-3
MEAN_MOTION_DOT = .16099E-3
MEAN_MOTION_DDOT = 0

CCSDS_OMM_VERS = 2.0
CREATION_DATE  = 
ORIGINATOR     = 

OBJECT_NAME    = ALOS-2
OBJECT_ID      = 2014-029A
CENTER_NAME    = EARTH
REF_FRAME      = TEME
TIME_SYSTEM    = UTC
MEAN_ELEMENT_THEORY = SGP/SGP4

EPOCH          = 2025-11-27T06:07:21.524736
MEAN_MOTION    = 14.79483644
ECCENTRICITY   = .00013844
INCLINATION    = 97.9230
RA_OF_ASC_NODE = 66.3213
ARG_OF_PERICENTER = 99.1239
MEAN_ANOMALY   = 261.0129

EPHEMERIS_TYPE = 0
CLASSIFICATION_TYPE = U
NORAD_CAT_ID   = 39766
ELEMENT_SET_NO = 999
REV_AT_EPOCH   = 62172
BSTAR          = .36275334E-3
MEAN_MOTION_DOT = .2659E-4
MEAN_MOTION_DDOT = 0

CCSDS_OMM_VERS = 2.0
CREATION_DATE  = 
ORIGINATOR     = 

OBJECT_NAME    = YAOGAN-29
OBJECT_ID      = 2015-069A
CENTER_NAME    = EARTH
REF_FRAME      = TEME
TIME_SYSTEM    = UTC
MEAN_ELEMENT_THEORY = SGP/SGP4

EPOCH          = 2025-11-27T07:11:34.155168
MEAN_MOTION    = 14.82856466
ECCENTRICITY   = .00012252
INCLINATION    = 98.0235
RA_OF_ASC_NODE = 354.4209
ARG_OF_PERICENTER = 21.7210
MEAN_ANOMALY   = 338.4055

EPHEMERIS_TYPE = 0
CLASSIFICATION_TYPE = U
NORAD_CAT_ID   = 41038
ELEMENT_SET_NO = 999
REV_AT_EPOCH   = 54070
BSTAR          = .74081449E-4
MEAN_MOTION_DOT = .546E-5
MEAN_MOTION_DDOT = 0

CCSDS_OMM_VERS = 2.0
CREATION_DATE  = 
ORIGINATOR     = 

OBJECT_NAME    = ASTRO-H (HITOMI)
OBJECT_ID      = 2016-012A
CENTER_NAME    = EARTH
REF_FRAME      = TEME
TIME_SYSTEM    = UTC
MEAN_ELEMENT_THEORY = SGP/SGP4

EPOCH          = 2025-11-27T06:44:22.517088
MEAN_MOTION    = 15.09205855
ECCENTRICITY   = .00095733
INCLINATION    = 31.0004
RA_OF_ASC_NODE = 297.0209
ARG_OF_PERICENTER = 21.4371
MEAN_ANOMALY   = 338.6666

EPHEMERIS_TYPE = 0
CLASSIFICATION_TYPE = U
NORAD_CAT_ID   = 41337
ELEMENT_SET_NO = 999
REV_AT_EPOCH   = 53674
BSTAR          = .21493017E-3
MEAN_MOTION_DOT = .3598E-4
MEAN_MOTION_DDOT = 0

CCSDS_OMM_VERS = 2.0
CREATION_DATE  = 
ORIGINATOR     = 

OBJECT_NAME    = HXMT (HUIYAN)
OBJECT_ID      = 2017-034A
CENTER_NAME    = EARTH
REF_FRAME      = TEME
TIME_SYSTEM    = UTC
MEAN_ELEMENT_THEORY = SGP/SGP4

EPOCH          = 2025-11-27T04:15:05.910336
MEAN_MOTION    = 15.16046417
ECCENTRICITY   = .00336909
INCLINATION    = 43.0132
RA_OF_ASC_NODE = 225.9774
ARG_OF_PERICENTER = 305.4034
MEAN_ANOMALY   = 54.3668

EPHEMERIS_TYPE = 0
CLASSIFICATION_TYPE = U
NORAD_CAT_ID   = 42758
ELEMENT_SET_NO = 999
REV_AT_EPOCH   = 46697
BSTAR          = .39584681E-3
MEAN_MOTION_DOT = .763E-4
MEAN_MOTION_DDOT = 0

CCSDS_OMM_VERS = 2.0
CREATION_DATE  = 
ORIGINATOR     = 

OBJECT_NAME    = CZ-2C R/B
OBJECT_ID      = 2018-054D
CENTER_NAME    = EARTH
REF_FRAME      = TEME
TIME_SYSTEM    = UTC
MEAN_ELEMENT_THEORY = SGP/SGP4

EPOCH          = 2025-11-27T05:47:27.786912
MEAN_MOTION    = 15.70473249
ECCENTRICITY   = .00200973
INCLINATION    = 35.1352
RA_OF_ASC_NODE = 285.7063
ARG_OF_PERICENTER = 343.9630
MEAN_ANOMALY   = 16.0464

EPHEMERIS_TYPE = 0
CLASSIFICATION_TYPE = U
NORAD_CAT_ID   = 43521
ELEMENT_SET_NO = 999
REV_AT_EPOCH   = 41261
BSTAR          = .71141583E-3
MEAN_MOTION_DOT = .92507E-3
MEAN_MOTION_DDOT = 0

CCSDS_OMM_VERS = 2.0
CREATION_DATE  = 
ORIGINATOR     = 

OBJECT_NAME    = SAOCOM 1A
OBJECT_ID      = 2018-076A
CENTER_NAME    = EARTH
REF_FRAME      = TEME
TIME_SYSTEM    = UTC
MEAN_ELEMENT_THEORY = SGP/SGP4

EPOCH          = 2025-11-27T06:42:28.953792
MEAN_MOTION    = 14.82151280
ECCENTRICITY   = .00015821
INCLINATION    = 97.8858
RA_OF_ASC_NODE = 155.9264
ARG_OF_PERICENTER = 89.3098
MEAN_ANOMALY   = 270.8297

EPHEMERIS_TYPE = 0
CLASSIFICATION_TYPE = U
NORAD_CAT_ID   = 43641
ELEMENT_SET_NO = 999
REV_AT_EPOCH   = 38619
BSTAR          = .77927208E-4
MEAN_MOTION_DOT = .568E-5
MEAN_MOTION_DDOT = 0

CCSDS_OMM_VERS = 2.0
CREATION_DATE  = 
ORIGINATOR     = 

OBJECT_NAME    = H-2A R/B
OBJECT_ID      = 2018-084L
CENTER_NAME    = EARTH
REF_FRAME      = TEME
TIME_SYSTEM    = UTC
MEAN_ELEMENT_THEORY = SGP/SGP4

EPOCH          = 2025-11-27T00:03:26.742240
MEAN_MOTION    = 15.36584596
ECCENTRICITY   = .00285403
INCLINATION    = 98.8789
RA_OF_ASC_NODE = 161.8301
ARG_OF_PERICENTER = 20.1751
MEAN_ANOMALY   = 340.0609

EPHEMERIS_TYPE = 0
CLASSIFICATION_TYPE = U
NORAD_CAT_ID   = 43682
ELEMENT_SET_NO = 999
REV_AT_EPOCH   = 38998
BSTAR          = .56316189E-3
MEAN_MOTION_DOT = .20311E-3
MEAN_MOTION_DDOT = 0

CCSDS_OMM_VERS = 2.0
CREATION_DATE  = 
ORIGINATOR     = 

OBJECT_NAME    = SAOCOM 1B
OBJECT_ID      = 2020-059A
CENTER_NAME    = EARTH
REF_FRAME      = TEME
TIME_SYSTEM    = UTC
MEAN_ELEMENT_THEORY = SGP/SGP4

EPOCH          = 2025-11-27T05:50:15.942048
MEAN_MOTION    = 14.82160109
ECCENTRICITY   = .00013407
INCLINATION    = 97.8845
RA_OF_ASC_NODE = 154.9921
ARG_OF_PERICENTER = 90.3122
MEAN_ANOMALY   = 269.8245

EPHEMERIS_TYPE = 0
CLASSIFICATION_TYPE = U
NORAD_CAT_ID   = 46265
ELEMENT_SET_NO = 999
REV_AT_EPOCH   = 28357
BSTAR          = .81379216E-4
MEAN_MOTION_DOT = .596E-5
MEAN_MOTION_DDOT = 0

CCSDS_OMM_VERS = 2.0
CREATION_DATE  = 
ORIGINATOR     = 

OBJECT_NAME    = CSS (TIANHE)
OBJECT_ID      = 2021-035A
CENTER_NAME    = EARTH
REF_FRAME      = TEME
TIME_SYSTEM    = UTC
MEAN_ELEMENT_THEORY = SGP/SGP4

EPOCH          = 2025-11-27T06:33:24.416928
MEAN_MOTION    = 15.58329246
ECCENTRICITY   = .00107655
INCLINATION    = 41.4669
RA_OF_ASC_NODE = 110.5393
ARG_OF_PERICENTER = 279.2422
MEAN_ANOMALY   = 80.7198

EPHEMERIS_TYPE = 0
CLASSIFICATION_TYPE = U
NORAD_CAT_ID   = 48274
ELEMENT_SET_NO = 999
REV_AT_EPOCH   = 26161
BSTAR          = .26643801E-3
MEAN_MOTION_DOT = .2057E-3
MEAN_MOTION_DDOT = 0

CCSDS_OMM_VERS = 2.0
CREATION_DATE  = 
ORIGINATOR     = 

OBJECT_NAME    = COSMOS 2550
OBJECT_ID      = 2021-056A
CENTER_NAME    = EARTH
REF_FRAME      = TEME
TIME_SYSTEM    = UTC
MEAN_ELEMENT_THEORY = SGP/SGP4

EPOCH          = 2025-11-26T19:34:10.629984
MEAN_MOTION    = 15.33840302
ECCENTRICITY   = .0008298
INCLINATION    = 67.1432
RA_OF_ASC_NODE = 352.1024
ARG_OF_PERICENTER = 270.4119
MEAN_ANOMALY   = 89.6085

EPHEMERIS_TYPE = 0
CLASSIFICATION_TYPE = U
NORAD_CAT_ID   = 48865
ELEMENT_SET_NO = 999
REV_AT_EPOCH   = 24768
BSTAR          = .1533894E-5
MEAN_MOTION_DOT = -.141E-5
MEAN_MOTION_DDOT = 0

